STARLINK-36441          
1 67469U 26008AA  26042.91668981 -.02043254  00000+0 -51615-1 0  9990
2 67469  43.0005 351.3003 0001530 257.1486 132.7590 15.42620135  5655
STARLINK-36454          
1 67470U 26008AB  26042.25630314  .00109841  00000+0  18494-2 0  9998
2 67470  43.0010 355.0110 0001731 267.2020  92.8642 15.50618322  5526
STARLINK-36334          
1 67471U 26008AC  26042.91668981 -.02024737  00000+0 -67469-1 0  9992
2 67471  43.0012 351.2697 0001502 252.8303 148.6386 15.33613213  5651
STARLINK-36269          
1 67472U 26008AD  26042.91668981 -.02023768  00000+0 -55502-1 0  9991
2 67472  42.9996 351.1772 0001351 271.9143 167.7200 15.40145571  5674
STARLINK-36408          
1 67473U 26008AE  26042.91668981 -.02064373  00000+0 -46399-1 0  9993
2 67473  43.0004 351.2027 0001453 261.0179 167.7621 15.46057131  5670
ALSAT-3A                
1 67474U 26009A   26042.93144964  .00007754  00000+0  32714-3 0  9991
2 67474  97.4676 117.5751 0012778 159.0100 201.1664 15.23499384  4201
CZ-2C R/B               
1 67475U 26009B   26042.90714394  .00003157  00000+0  21333-3 0  9997
2 67475  97.1742 115.3527 0100391 127.5748 233.4649 15.03149030  4206
TIANQI-37               
1 67476U 26010A   26039.27753693  .00000165  00000+0  15719-3 0  9998
2 67476  44.9825 296.6529 0012909  70.2546 289.9683 14.13528441  3324
TIANQI-38               
1 67477U 26010B   26039.27310946  .00000208  00000+0  17865-3 0  9991
2 67477  44.9788 296.6199 0011754  75.6443 284.5700 14.13905796  3321
TIANQI-39               
1 67478U 26010C   26039.27859865  .00000167  00000+0  15988-3 0  9998
2 67478  44.9839 296.6613 0016488  82.3005 277.9705 14.13055169  3329
TIANQI-40               
1 67479U 26010D   26040.19213046  .00000156  00000+0  15351-3 0  9999
2 67479  44.9786 292.4342 0011741  80.4003 279.8161 14.13182235  3454
SZ-20 MODULE            
1 67481U 25082C   26042.24751114  .00027909  00000+0  30508-3 0  9997
2 67481  41.4802   8.5083 0007222 155.9859 204.1318 15.62660831273487
